0 COSMOS 2251 DEB
1 33823U 93036BQ  22239.57746045  .00000472  00000-0  30421-3 0  9992
2 33823  73.8107  89.4898 0219805  61.8188 329.8987 13.94437676688132
0 COSMOS 2251 DEB
1 33824U 93036BR  22239.62545233  .00001555  00000-0  25178-3 0  9991
2 33824  74.0203 318.3544 0087410 356.1658  73.3826 14.69704322720781
0 COSMOS 2251 DEB
1 33825U 93036BS  22240.24501201  .00001393  00000-0  34370-3 0  9993
2 33825  73.9946 161.1551 0114373  58.0657  93.4220 14.49199190713638
0 COSMOS 2251 DEB
1 33826U 93036BT  22239.05779131  .00001216  00000-0  43276-3 0  9999
2 33826  74.0641 110.2790 0119451 100.9321  11.6775 14.31392414704441
0 COSMOS 2251 DEB
1 33828U 93036BV  22239.30019057  .00000325  00000-0  11436-3 0  9996
2 33828  74.0497 304.1637 0033352 316.4162 109.0250 14.38458507709772
0 COSMOS 2251 DEB
1 33830U 93036BX  22239.70788683  .00001022  00000-0  21853-3 0  9990
2 33830  74.0411  30.3911 0057334  98.8370 274.9631 14.59123185718355
0 COSMOS 2251 DEB
1 33832U 93036BZ  22240.20987993  .00000955  00000-0  29768-3 0  9991
2 33832  74.0605 304.3386 0038284 283.0592 136.5503 14.41851227710134
0 COSMOS 2251 DEB
1 33834U 93036CB  22240.09008252  .00002205  00000-0  33008-3 0  9994
2 33834  74.0700 258.5772 0062047 272.3089 148.2275 14.74048884723770
0 COSMOS 2251 DEB
1 33835U 93036CC  22239.91569745  .00000842  00000-0  23021-3 0  9992
2 33835  74.0629 210.0620 0076487 214.4122 175.6908 14.47157315713118
0 COSMOS 2251 DEB
1 33836U 93036CD  22239.92750352  .00001251  00000-0  28474-3 0  9992
2 33836  74.0042  60.8500 0035071 207.5517 303.7153 14.56634753464633
0 COSMOS 2251 DEB
1 33837U 93036CE  22239.77523814  .00000322  00000-0  96336-4 0  9998
2 33837  74.0144 152.1230 0037277 303.9837  55.7781 14.46593502713787
0 COSMOS 2251 DEB
1 33838U 93036CF  22240.43807769  .00000423  00000-0  13419-3 0  9990
2 33838  74.0378 230.1053 0031320 286.8884 194.3695 14.42737501712228
0 COSMOS 2251 DEB
1 33839U 93036CG  22239.42016400  .00000251  00000-0  56811-4 0  9995
2 33839  74.0442 347.5930 0091895  47.1640  22.0868 14.58963808720012
0 COSMOS 2251 DEB
1 33841U 93036CJ  22240.31420522  .00000179  00000-0  71511-4 0  9995
2 33841  74.0405 326.6944 0022245 341.9822  74.3071 14.35201521708976
0 COSMOS 2251 DEB
1 33842U 93036CK  22240.20014502  .00000290  00000-0  10190-3 0  9990
2 33842  74.0345 283.4959 0051239 324.9387  34.8397 14.38536313710325
0 COSMOS 2251 DEB
1 33843U 93036CL  22239.64925643  .00002465  00000-0  40500-3 0  9998
2 33843  73.9830 114.4528 0191362 196.5439 162.9430 14.59765601714491
0 COSMOS 2251 DEB
1 33844U 93036CM  22240.33487734  .00000346  00000-0  14357-3 0  9998
2 33844  74.0663  79.3561 0052209  43.4220  11.2870 14.29329378705654
0 COSMOS 2251 DEB
1 33845U 93036CN  22240.52829982  .00109276  00000-0  40808-2 0  9996
2 33845  74.0304 308.4271 0018800 298.5857  61.3452 15.26695722721498
0 COSMOS 2251 DEB
1 33848U 93036CR  22239.78532861  .00000786  00000-0  29508-3 0  9993
2 33848  74.0350  52.0432 0054436  44.7245 328.3247 14.32408936705967
0 IRIDIUM 33 DEB
1 33849U 97051S   22239.77945465  .00017574  00000-0  32777-2 0  9996
2 33849  86.0860  49.4703 0076792 200.1014 159.7170 14.62996459708665
0 IRIDIUM 33 DEB
1 33850U 97051T   22240.21414523  .00000627  00000-0  20676-3 0  9992
2 33850  86.3500 184.3116 0012885 148.4512 260.5207 14.36566932708615
0 IRIDIUM 33 DEB
1 33853U 97051W   22240.24180978  .00000290  00000-0  17428-3 0  9999
2 33853  86.0054 153.1717 0230615 302.1860 182.0748 13.91765497685921
0 IRIDIUM 33 DEB
1 33854U 97051X   22240.50935236  .00006068  00000-0  93055-3 0  9993
2 33854  86.2247  40.6385 0009352 182.5167 248.1430 14.73472406719444
0 IRIDIUM 33 DEB
1 33859U 97051AC  22239.89808311  .00001042  00000-0  28846-3 0  9994
2 33859  86.3469 180.7926 0051500 133.8814 226.6659 14.44915368709038
0 IRIDIUM 33 DEB
1 33860U 97051AD  22240.37413111  .00001414  00000-0  38439-3 0  9993
2 33860  86.3971 188.3087 0017407  61.3288  63.1026 14.46789055712487
0 IRIDIUM 33 DEB
1 33862U 97051AF  22239.40068622  .00000505  00000-0  12658-3 0  9995
2 33862  86.4184 197.1167 0062119 178.8730 303.1550 14.48192545713012
0 IRIDIUM 33 DEB
1 33864U 97051AH  22239.66717395  .00002796  00000-0  65497-3 0  9996
2 33864  86.2745 112.4601 0009680 352.8037  28.0233 14.54246057713595
0 IRIDIUM 33 DEB
1 33865U 97051AJ  22240.17568777  .00010844  00000-0  14673-2 0  9995
2 33865  86.3418 124.7633 0033683  86.2544  42.0885 14.78501272718016
0 IRIDIUM 33 DEB
1 33866U 97051AK  22239.73684046  .00000821  00000-0  38087-3 0  9994
2 33866  86.3034 237.1687 0130076  30.7451 144.3772 14.15194452697380
0 IRIDIUM 33 DEB
1 33867U 97051AL  22239.79063754  .00002234  00000-0  46805-3 0  9995
2 33867  86.4226 171.8775 0020768 278.0865  81.7988 14.59205797716983
0 IRIDIUM 33 DEB
1 33869U 97051AN  22239.90684989  .00002803  00000-0  69046-3 0  9993
2 33869  86.3564 207.8843 0064674 216.1983 143.4838 14.50628495707247
0 IRIDIUM 33 DEB
1 33870U 97051AP  22240.11377713  .00000752  00000-0  24887-3 0  9999
2 33870  86.3822 208.8549 0022760 179.0475 308.4992 14.36515417708308
0 IRIDIUM 33 DEB
1 33873U 97051AS  22240.17874013  .00004007  00000-0  76923-3 0  9998
2 33873  86.3701 148.0787 0015013 256.5667 103.3872 14.63435955716376
0 IRIDIUM 33 DEB
1 33874U 97051AT  22240.15186319  .00002940  00000-0  96433-3 0  9994
2 33874  86.2946 183.1265 0065270  22.9899 114.7690 14.36874276704622
0 IRIDIUM 33 DEB
1 33875U 97051AU  22239.66132566  .00004686  00000-0  65513-3 0  9998
2 33875  86.4074 132.4797 0028173 351.9489  36.2914 14.77145699721963
0 IRIDIUM 33 DEB
1 33878U 97051AX  22240.35111628  .00007830  00000-0  17777-2 0  9997
2 33878  86.3070 183.5368 0097006 218.6784 140.7449 14.53021778706827
0 IRIDIUM 33 DEB
1 33879U 97051AY  22240.14884703  .00014584  00000-0  15896-2 0  9990
2 33879  86.3569 109.5146 0038063 259.3146 100.3792 14.87344548721061
0 IRIDIUM 33 DEB
1 33881U 97051BA  22239.75341240  .00001962  00000-0  75241-3 0  9999
2 33881  86.3814 255.7147 0084813 153.6111 260.0788 14.28104667701859
0 IRIDIUM 33 DEB
1 33884U 97051BD  22240.11673876  .00002128  00000-0  55225-3 0  9992
2 33884  86.3848 177.6299 0017591  93.7090 326.8983 14.49238622713019
0 IRIDIUM 33 DEB
1 33886U 97051BF  22240.49790840  .00000220  00000-0  72039-4 0  9990
2 33886  86.3862 211.9241 0013114 203.8598 282.5588 14.33724456708156
0 IRIDIUM 33 DEB
1 33887U 97051BG  22240.21875854  .00000188  00000-0  58573-4 0  9990
2 33887  86.3112 160.4478 0005432 194.3803 319.9128 14.35312231708995
0 IRIDIUM 33 DEB
1 33888U 97051BH  22239.79748099  .00003781  00000-0  10155-2 0  9996
2 33888  86.3315 175.4144 0041595 125.3511 235.1591 14.47366791708555
0 COSMOS 2251 DEB
1 33890U 93036CT  22239.73135913  .00002257  00000-0  47928-3 0  9993
2 33890  74.0149  71.5347 0045657 137.5630 222.9080 14.59063174716365
0 COSMOS 2251 DEB
1 33892U 93036CV  22239.68311250  .00000351  00000-0  17283-3 0  9993
2 33892  73.8047 125.0499 0123650   9.4955  20.9748 14.17495184698776
0 COSMOS 2251 DEB
1 33893U 93036CW  22240.13905510  .00010577  00000-0  14025-2 0  9995
2 33893  74.0238 131.3914 0136578 140.3057   9.4634 14.73556147714690
0 COSMOS 2251 DEB
1 33894U 93036CX  22239.59618397  .00001371  00000-0  14841-2 0  9996
2 33894  73.7695  40.2733 0596000 129.0281 236.5441 13.15486784648547
0 COSMOS 2251 DEB
1 33896U 93036CZ  22240.20997584  .00000546  00000-0  28071-3 0  9990
2 33896  73.7715 168.0078 0137035 184.6550 300.9382 14.13059244697504
0 COSMOS 2251 DEB
1 33899U 93036DC  22239.34696825  .00000674  00000-0  18326-3 0  9994
2 33899  74.0577 196.1805 0076446 208.0167 305.8750 14.47783297713534
0 COSMOS 2251 DEB
1 33900U 93036DD  22240.12601176  .00000503  00000-0  13353-3 0  9996
2 33900  74.0202 115.0437 0055573 202.0543 312.7777 14.50440129715685
0 COSMOS 2251 DEB
1 33901U 93036DE  22240.14975533  .00001754  00000-0  33660-3 0  9992
2 33901  73.7854 290.9014 0112782 281.8134  77.0398 14.60610901717439
0 COSMOS 2251 DEB
1 33905U 93036DJ  22239.84476193  .00000590  00000-0  24075-3 0  9996
2 33905  73.8903   9.2493 0063014 140.2841  16.5473 14.28499721704737
0 COSMOS 2251 DEB
1 33906U 93036DK  22239.92131035  .00001093  00000-0  38344-3 0  9992
2 33906  74.0375  40.3758 0054541  14.2945 112.8257 14.35371284706412
0 COSMOS 2251 DEB
1 33907U 93036DL  22239.83021793  .00001688  00000-0  82746-3 0  9997
2 33907  74.0740  22.5972 0153743  17.7236 136.1995 14.12582323695007
0 COSMOS 2251 DEB
1 33908U 93036DM  22240.19128706  .00001352  00000-0  79040-3 0  9992
2 33908  73.8442 153.1875 0257347  34.3152 327.4302 13.94032919686528
0 COSMOS 2251 DEB
1 33911U 93036DQ  22240.20324484  .00001280  00000-0  36285-3 0  9993
2 33911  74.1008 279.3686 0023482 204.7853 227.2346 14.46353650711741
0 COSMOS 2251 DEB
1 33912U 93036DR  22239.18155928  .00000600  00000-0  19303-3 0  9991
2 33912  74.0380 275.3023 0016507 287.1923 140.4232 14.41393600710527
0 COSMOS 2251 DEB
1 33913U 93036DS  22240.47637185  .00000462  00000-0  14925-3 0  9997
2 33913  74.0349 261.3270 0055815 299.1367 173.4842 14.41129046711134
0 COSMOS 2251 DEB
1 33914U 93036DT  22239.37862531  .00000243  00000-0  21509-3 0  9993
2 33914  74.0891 194.4567 0314236 215.4902 270.0749 13.69593878675926
0 COSMOS 2251 DEB
1 33915U 93036DU  22239.50032840  .00000372  00000-0  14444-3 0  9994
2 33915  74.0433  68.4670 0115717  94.4775 294.9600 14.29566733705337
0 COSMOS 2251 DEB
1 33916U 93036DV  22239.92520159  .00000182  00000-0  17064-3 0  9996
2 33916  74.0512 213.2806 0331083 291.2052 132.9680 13.66590350674480
0 COSMOS 2251 DEB
1 33917U 93036DW  22239.87984031  .00000383  00000-0  33166-3 0  9998
2 33917  74.1036 286.1337 0353954 308.5389  48.4483 13.64368160673006
0 COSMOS 2251 DEB
1 33918U 93036DX  22240.17721986  .00006064  00000-0  73647-3 0  9992
2 33918  74.0543 263.6405 0049917 250.9653 175.0478 14.82850014723361
0 COSMOS 2251 DEB
1 33919U 93036DY  22240.30973821  .00002851  00000-0  59312-3 0  9998
2 33919  74.0496 106.6552 0031384 119.9120 240.5170 14.60220350716516
